BEIDOU-2 IGSO-1 (C06)   
1 36828U 10036A   24285.63723772 -.00000114  00000+0  00000+0 0  9990
2 36828  54.2542 168.5167 0040838 203.3275 342.3592  1.00248585 52053
BEIDOU-2 G4 (C04)       
1 37210U 10057A   24289.79805465 -.00000112  00000+0  00000+0 0  9998
2 37210   2.1339  69.8402 0008618 168.3443 234.0021  1.00269860 51183
BEIDOU-2 IGSO-2 (C07)   
1 37256U 10068A   24289.83046289 -.00000201  00000+0  00000+0 0  9995
2 37256  48.6604 279.3454 0039851 218.2710 293.7046  1.00263822 50688
BEIDOU-2 IGSO-3 (C08)   
1 37384U 11013A   24289.77720606 -.00000192  00000+0  00000+0 0  9992
2 37384  61.5353  45.9541 0032448 176.7761 189.7733  1.00277950 49556
BEIDOU-2 IGSO-4 (C09)   
1 37763U 11038A   24287.67630279 -.00000051  00000+0  00000+0 0  9997
2 37763  54.5600 171.1347 0129128 228.8631 321.7939  1.00282943 48516
BEIDOU-2 IGSO-5 (C10)   
1 37948U 11073A   24287.87736191 -.00000133  00000+0  00000+0 0  9994
2 37948  48.7987 279.0644 0102709 222.0390 293.4079  1.00265593 47001
BEIDOU-2 G5 (C05)       
1 38091U 12008A   24289.71646639  .00000058  00000+0  00000+0 0  9990
2 38091   2.0533  70.6406 0008446 218.1783  52.6651  1.00266439 46366
BEIDOU-2 M3 (C11)       
1 38250U 12018A   24289.21038757 -.00000043  00000+0  00000+0 0  9994
2 38250  56.2535 325.3436 0025225 263.3949  96.3842  1.86233415 84584
BEIDOU-2 M4 (C12)       
1 38251U 12018B   24287.52968597 -.00000036  00000+0  00000+0 0  9993
2 38251  56.1605 324.6624 0016060 263.7970  96.0867  1.86231850 84550
BEIDOU-2 M6 (C14)       
1 38775U 12050B   24287.23924116  .00000052  00000+0  00000+0 0  9994
2 38775  56.0111  83.2202 0010563 347.6394  12.3558  1.86230967 82268
BEIDOU-2 G6 (C02)       
1 38953U 12059A   24289.80250549 -.00000175  00000+0  00000+0 0  9995
2 38953   2.8637  79.4951 0006308 301.8196  16.4622  1.00272821 43793
BEIDOU-3S IGSO-1S (C31) 
1 40549U 15019A   24289.78196389 -.00000167  00000+0  00000+0 0  9997
2 40549  50.3493 302.7628 0036424 198.5212 261.9353  1.00277966 34962
BEIDOU-3S M2S (C58)     
1 40748U 15037A   24289.34059808 -.00000043  00000+0  00000+0 0  9997
2 40748  55.3877 322.9469 0013100 253.0499 106.8698  1.86229040 62763
BEIDOU-3S M1S (C57)     
1 40749U 15037B   24288.53958480 -.00000039  00000+0  00000+0 0  9997
2 40749  55.3909 322.9607 0003588 314.4938  45.5416  1.86227460 62753
BEIDOU-3S IGSO-2S (C56) 
1 40938U 15053A   24289.82641943 -.00000152  00000+0  00000+0 0  9997
2 40938  50.1751 265.9924 0052739 190.0311 322.9066  1.00278432 33240
BEIDOU-2 IGSO-6 (C13)   
1 41434U 16021A   24289.80682528 -.00000165  00000+0  00000+0 0  9991
2 41434  59.3618  44.1409 0053836 222.6413 143.4056  1.00290636 31371
BEIDOU-2 G7 (C03)       
1 41586U 16037A   24289.82992461 -.00000354  00000+0  00000+0 0  9998
2 41586   1.6654  66.3925 0006928 350.9804  16.7893  1.00274234   785
BEIDOU-3 M1 (C19)       
1 43001U 17069A   24289.15293664  .00000038  00000+0  00000+0 0  9991
2 43001  56.1626  83.2687 0007105 303.5243  56.4202  1.86231100 47241
BEIDOU-3 M2 (C20)       
1 43002U 17069B   24289.62740921  .00000033  00000+0  00000+0 0  9992
2 43002  56.1624  83.2888 0005311 341.3366  18.6532  1.86230856 47249
BEIDOU-3 M7 (C27)       
1 43107U 18003A   24289.37547352 -.00000046  00000+0  00000+0 0  9997
2 43107  54.8461 323.4838 0002263  79.4941 280.5946  1.86232327 45998
BEIDOU-3 M8 (C28)       
1 43108U 18003B   24289.31691028 -.00000045  00000+0  00000+0 0  9991
2 43108  54.8391 323.4708 0005124 257.0334 102.9726  1.86230776 46008
BEIDOU-3 M4 (C22)       
1 43207U 18018A   24289.22105062  .00000037  00000+0  00000+0 0  9995
2 43207  56.1216  83.3513 0004384  30.2934 329.7440  1.86231029 45383
BEIDOU-3 M3 (C21)       
1 43208U 18018B   24288.21378272  .00000047  00000+0  00000+0 0  9990
2 43208  56.1201  83.3892 0004916 323.4334  36.5508  1.86231071 45363
BEIDOU-3 M9 (C29)       
1 43245U 18029A   24289.50788852 -.00000044  00000+0  00000+0 0  9993
2 43245  54.7256 321.1754 0002342 247.7644 112.2716  1.86232335 44547
BEIDOU-3 M10 (C30)      
1 43246U 18029B   24289.43738845 -.00000043  00000+0  00000+0 0  9992
2 43246  54.7229 321.2052 0003054 342.7876  17.2632  1.86232752 44526
BEIDOU-2 IGSO-7 (C16)   
1 43539U 18057A   24289.60353889 -.00000109  00000+0  00000+0 0  9991
2 43539  55.1470 168.3405 0078063 232.8025 314.1119  1.00274764 23018
BEIDOU-3 M5 (C23)       
1 43581U 18062A   24289.12523748  .00000003  00000+0  00000+0 0  9996
2 43581  54.1193 203.0527 0003353 303.9348  56.0579  1.86228500 42278
BEIDOU-3 M6 (C24)       
1 43582U 18062B   24287.37959593 -.00000005  00000+0  00000+0 0  9996
2 43582  54.1192 203.1015 0005987  23.3592 336.6895  1.86229673 42247
BEIDOU-3 M12 (C26)      
1 43602U 18067A   24289.46081479  .00000007  00000+0  00000+0 0  9996
2 43602  54.2101 201.7229 0007997  27.6216 332.4498  1.86227563 41760
BEIDOU-3 M11 (C25)      
1 43603U 18067B   24289.05722843  .00000004  00000+0  00000+0 0  9996
2 43603  54.2074 201.7014 0004724  18.6288 341.4158  1.86227098 41784
BEIDOU-3 M13 (C32)      
1 43622U 18072A   24289.55563349  .00000032  00000+0  00000+0 0  9993
2 43622  56.0936  82.8678 0003937 299.4847  60.4853  1.86231167 41301
BEIDOU-3 M14 (C33)      
1 43623U 18072B   24289.42109924  .00000034  00000+0  00000+0 0  9997
2 43623  56.0952  82.8656 0002415   1.9820 358.0291  1.86231103 41293
BEIDOU-3 M16 (C35)      
1 43647U 18078A   24289.58315936 -.00000045  00000+0  00000+0 0  9991
2 43647  54.6219 321.2612 0006024   8.7754 351.2959  1.86232114 40807
BEIDOU-3 M15 (C34)      
1 43648U 18078B   24288.63838749 -.00000039  00000+0  00000+0 0  9992
2 43648  54.6185 321.2965 0002704   5.9261 354.1397  1.86232071 40804
BEIDOU-3 G1 (C59)       
1 43683U 18085A   24289.74275120 -.00000276  00000+0  00000+0 0  9993
2 43683   2.4846 105.1983 0002266  38.7839 288.2620  1.00272223 21944
BEIDOU-3 M17 (C36)      
1 43706U 18093A   24289.32729278  .00000004  00000+0  00000+0 0  9998
2 43706  54.2022 202.9931 0008264 292.0212  67.9167  1.86228135 40186
BEIDOU-3 M18 (C37)      
1 43707U 18093B   24289.19165187  .00000003  00000+0  00000+0 0  9996
2 43707  54.2030 202.9895 0007191 324.8463  35.1313  1.86229698 40179
BEIDOU-3 IGSO-1 (C38)   
1 44204U 19023A   24289.77995890 -.00000223  00000+0  00000+0 0  9994
2 44204  57.8240  43.9682 0024667 207.1980 173.3631  1.00264795  1106
BEIDOU-2 G8 (C01)       
1 44231U 19027A   24289.79981558 -.00000248  00000+0  00000+0 0  9993
2 44231   1.7723  74.4948 0004047 186.6472 196.1526  1.00269169 19971
BEIDOU-3 IGSO-2 (C39)   
1 44337U 19035A   24289.59973333 -.00000104  00000+0  00000+0 0  9990
2 44337  55.1819 164.2148 0034795 201.7113 352.6499  1.00259284 19550
BEIDOU-3 M24 (C46)      
1 44542U 19061A   24289.26153586  .00000004  00000+0  00000+0 0  9999
2 44542  54.4299 203.3053 0008677   1.9981 358.0299  1.86229297 34432
BEIDOU-3 M23 (C45)      
1 44543U 19061B   24289.61496250  .00000006  00000+0  00000+0 0  9999
2 44543  54.4284 203.2622 0005521 352.0918 157.4651  1.86229367 34434
BEIDOU-3 IGSO-3 (C40)   
1 44709U 19073A   24289.39969022 -.00000169  00000+0  00000+0 0  9994
2 44709  55.8483 287.4493 0041057 191.1180 168.7826  1.00265775 18341
BEIDOU-3 M22 (C44)      
1 44793U 19078A   24288.56943910 -.00000039  00000+0  00000+0 0  9994
2 44793  54.4703 321.2139 0004658  14.0722 346.0033  1.86231998 33273
BEIDOU-3 M21 (C43)      
1 44794U 19078B   24289.23587472 -.00000043  00000+0  00000+0 0  9992
2 44794  54.4432 321.1641 0002855 355.1929   4.8656  1.86232469 33291
BEIDOU-3 M19 (C41)      
1 44864U 19090A   24289.53452639  .00000033  00000+0  00000+0 0  9991
2 44864  56.0275  83.0331 0015519 279.2226 113.3614  1.86231374 32876
BEIDOU-3 M20 (C42)      
1 44865U 19090B   24287.80675922  .00000049  00000+0  00000+0 0  9999
2 44865  56.0276  83.1246 0012979 294.0639 109.8389  1.86231354 32837
BEIDOU-3 G2 (C60)       
1 45344U 20017A   24289.84791274 -.00000142  00000+0  00000+0 0  9993
2 45344   2.4776  33.8586 0003952 196.0490 180.2625  1.00271817 17154
BEIDOU-3 G3 (C61)       
1 45807U 20040A   24289.82992457 -.00000355  00000+0  00000+0 0  9993
2 45807   1.0059  53.6957 0002867 294.6637  85.8186  1.00267587 15969
BEIDOU-3 G4 (C62)       
1 56564U 23066A   24289.79805465 -.00000116  00000+0  00000+0 0  9999
2 56564   1.8280 288.6783 0005637 242.6812 300.7827  1.00272075  5281
BEIDOU-3 M28 (C50)      
1 58654U 23207A   24289.85568206  .00000027  00000+0  00000+0 0  9994
2 58654  55.2130  82.9543 0000852 204.3343 155.6696  1.86232012  5492
BEIDOU-3 M26 (C48)      
1 58655U 23207B   24289.65489899  .00000029  00000+0  00000+0 0  9995
2 58655  55.2147  82.9466 0002295 215.3913 144.6028  1.86231539  5471
